NORAD_CAT_ID,OBJECT_NAME,OBJECT_TYPE,EPOCH,MEAN_MOTION,ECCENTRICITY,INCLINATION,RA_OF_ASC_NODE,ARG_OF_PERICENTER,MEAN_ANOMALY,BSTAR,MEAN_MOTION_DOT,MEAN_MOTION_DDOT,TLE_LINE0,TLE_LINE1,TLE_LINE2,SEMIMAJOR_AXIS,PERIOD,APOGEE,PERIGEE,DECAYED
53834.0,STARLINK-4737,PAYLOAD,2022-12-13 22:49:10,15.08843859,0.000208,53.2172,208.8121,62.1726,297.9477,0.00020391,2.959e-05,0.0,0 STARLINK-4737,1 53834U 22114S   22347.95081959  .00002959  00000-0  20391-3 0  9990,2 53834  53.2172 208.8121 0002080  62.1726 297.9477 15.08843859 13898,6917.869000000002,95.437,541.173,538.295,0.0
53834.0,STARLINK-4737,PAYLOAD,2022-12-14 09:56:53,15.08826318,0.0002098,53.2148,206.7337,45.805,314.3115,-0.00020403,-3.533e-05,0.0,0 STARLINK-4737,1 53834U 22114S   22348.41450828 -.00003533  00000-0 -20403-3 0  9992,2 53834  53.2148 206.7337 0002098  45.8050 314.3115 15.08826318 13966,6917.922,95.438,541.239,538.336,0.0
53834.0,STARLINK-4737,PAYLOAD,2022-12-14 21:04:35,15.08831037,0.0002038,53.215,204.6525,50.3995,309.7177,-9.4163e-06,-4.38e-06,0.0,0 STARLINK-4737,1 53834U 22114S   22348.87819116 -.00000438  00000-0 -94163-5 0  9998,2 53834  53.2150 204.6525 0002038  50.3995 309.7177 15.08831037 14576,6917.908,95.438,541.183,538.363,0.0
53834.0,STARLINK-4737,PAYLOAD,2022-12-15 00:15:22,15.08833641,0.0002063,53.2152,204.0579,50.3873,309.7301,-1.3025e-05,-4.95e-06,0.0,0 STARLINK-4737,1 53834U 22114S   22349.01067140 -.00000495  00000-0 -13025-4 0  9997,2 53834  53.2152 204.0579 0002063  50.3873 309.7301 15.08833641 14059,6917.9,95.438,541.192,538.3380000000002,0.0
53834.0,STARLINK-4737,PAYLOAD,2022-12-15 14:33:49,15.08841266,0.0002039,53.2161,201.3814,50.3645,309.7527,8.1834e-05,1.014e-05,0.0,0 STARLINK-4737,1 53834U 22114S   22349.60682715  .00001014  00000-0  81834-4 0  9992,2 53834  53.2161 201.3814 0002039  50.3645 309.7527 15.08841266 14143,6917.877,95.437,541.1519999999998,538.331,0.0
53834.0,STARLINK-4737,PAYLOAD,2022-12-15 19:19:59,15.08844276,0.0002055,53.2161,200.4895,50.2452,309.8721,0.00010605,1.4e-05,0.0,0 STARLINK-4737,1 53834U 22114S   22349.80554475  .00001400  00000-0  10605-3 0  9991,2 53834  53.2161 200.4895 0002055  50.2452 309.8721 15.08844276 14719,6917.8669999999975,95.437,541.154,538.311,0.0
53834.0,STARLINK-4737,PAYLOAD,2022-12-16 14:24:37,15.08842027,0.0002109,53.2152,196.9211,51.7779,308.3403,0.00022007,3.216e-05,0.0,0 STARLINK-4737,1 53834U 22114S   22350.60043093  .00003216  00000-0  22007-3 0  9996,2 53834  53.2152 196.9211 0002109  51.7779 308.3403 15.08842027 14834,6917.874,95.437,541.198,538.28,0.0
53834.0,STARLINK-4737,PAYLOAD,2022-12-16 19:10:46,15.08839849,0.0002105,53.2152,196.0289,51.5281,308.5899,0.00016112,2.277e-05,0.0,0 STARLINK-4737,1 53834U 22114S   22350.79915206  .00002277  00000-0  16112-3 0  9996,2 53834  53.2152 196.0289 0002105  51.5281 308.5899 15.08839849 14325,6917.880999999999,95.438,541.202,538.29,0.0
53834.0,STARLINK-4737,PAYLOAD,2022-12-17 14:15:24,15.08843983,0.0002094,53.2154,192.4608,53.47,306.6485,5.5718e-05,5.99e-06,0.0,0 STARLINK-4737,1 53834U 22114S   22351.59402808  .00000599  00000-0  55718-4 0  9995,2 53834  53.2154 192.4608 0002094  53.4700 306.6485 15.08843983 14982,6917.868,95.437,541.182,538.285,0.0
53834.0,STARLINK-4737,PAYLOAD,2022-12-17 20:36:57,15.08832188,0.0001989,53.2153,191.2707,53.9219,306.1957,-0.00012272,-2.24e-05,0.0,0 STARLINK-4737,1 53834U 22114S   22351.85899359 -.00002240  00000-0 -12272-3 0  9999,2 53834  53.2153 191.2707 0001989  53.9219 306.1957 15.08832188 15020,6917.904,95.438,541.145,538.393,0.0
53834.0,STARLINK-4737,PAYLOAD,2022-12-17 23:47:43,15.08832882,0.0002013,53.216,190.676,52.4824,307.6351,-3.8068e-05,-8.94e-06,0.0,0 STARLINK-4737,1 53834U 22114S   22351.99147902 -.00000894  00000-0 -38068-4 0  9999,2 53834  53.2160 190.6760 0002013  52.4824 307.6351 15.08832882 14502,6917.901999999999,95.438,541.16,538.375,0.0
53834.0,STARLINK-4737,PAYLOAD,2022-12-18 06:09:16,15.08836015,0.0001957,53.2163,189.4863,52.5498,307.5672,-4.4523e-05,-9.97e-06,0.0,0 STARLINK-4737,1 53834U 22114S   22352.25643771 -.00000997  00000-0 -44523-4 0  9991,2 53834  53.2163 189.4863 0001957  52.5498 307.5672 15.08836015 15080,6917.893,95.438,541.111,538.404,0.0
53834.0,STARLINK-4737,PAYLOAD,2022-12-18 22:03:07,15.08834325,0.0002022,53.2164,186.5125,50.625,309.4921,3.1539000000000004e-05,2.14e-06,0.0,0 STARLINK-4737,1 53834U 22114S   22352.91883928  .00000214  00000-0  31539-4 0  9997,2 53834  53.2164 186.5125 0002022  50.6250 309.4921 15.08834325 15180,6917.898,95.438,541.1619999999998,538.364,0.0
53834.0,STARLINK-4737,PAYLOAD,2022-12-19 06:00:03,15.08837656,0.0001993,53.2164,185.0255,50.9066,309.2103,3.8439e-05,3.24e-06,0.0,0 STARLINK-4737,1 53834U 22114S   22353.25003833  .00000324  00000-0  38439-4 0  9992,2 53834  53.2164 185.0255 0001993  50.9066 309.2103 15.08837656 14697,6917.888000000001,95.438,541.131,538.374,0.0
53834.0,STARLINK-4737,PAYLOAD,2022-12-19 18:43:08,15.08835936,0.0002038,53.2163,182.647,52.2953,307.8224,0.000151,2.116e-05,0.0,0 STARLINK-4737,1 53834U 22114S   22353.77995745  .00002116  00000-0  15100-3 0  9991,2 53834  53.2163 182.6470 0002038  52.2953 307.8224 15.08835936 15316,6917.893,95.438,541.168,538.3480000000002,0.0
53834.0,STARLINK-4737,PAYLOAD,2022-12-20 13:47:46,15.08837458,0.0002042,53.2162,179.0785,54.9203,305.198,0.00011435,1.532e-05,0.0,0 STARLINK-4737,1 53834U 22114S   22354.57484121  .00001532  00000-0  11435-3 0  9999,2 53834  53.2162 179.0785 0002042  54.9203 305.1980 15.08837458 14899,6917.888000000001,95.438,541.1659999999998,538.341,0.0
53834.0,STARLINK-4737,PAYLOAD,2022-12-21 05:41:37,15.08841992,0.0002082,53.2166,176.1052,55.5312,304.5876,0.0001035,1.359e-05,0.0,0 STARLINK-4737,1 53834U 22114S   22355.23723909  .00001359  00000-0  10350-3 0  9995,2 53834  53.2166 176.1052 0002082  55.5312 304.5876 15.08841992 15537,6917.874,95.437,541.18,538.299,0.0
53834.0,STARLINK-4737,PAYLOAD,2022-12-21 18:24:42,15.08844678,0.0002107,53.2167,173.7264,55.9714,304.1478,9.3039e-05,1.193e-05,0.0,0 STARLINK-4737,1 53834U 22114S   22355.76715695  .00001193  00000-0  93039-4 0  9998,2 53834  53.2167 173.7264 0002107  55.9714 304.1478 15.08844678 15071,6917.866,95.437,541.189,538.273,0.0
53834.0,STARLINK-4737,PAYLOAD,2022-12-22 11:53:56,15.08847766,0.0002106,53.2172,170.4555,56.6537,303.4657,0.00013032,1.787e-05,0.0,0 STARLINK-4737,1 53834U 22114S   22356.49579093  .00001787  00000-0  13032-3 0  9992,2 53834  53.2172 170.4555 0002106  56.6537 303.4657 15.08847766 15728,6917.857,95.437,541.179,538.265,0.0
53834.0,STARLINK-4737,PAYLOAD,2022-12-22 18:15:28,15.08849959,0.0002107,53.2173,169.266,57.289,302.8305,0.00014168,1.968e-05,0.0,0 STARLINK-4737,1 53834U 22114S   22356.76074809  .00001968  00000-0  14168-3 0  9999,2 53834  53.2173 169.2660 0002107  57.2890 302.8305 15.08849959 15765,6917.85,95.437,541.173,538.257,0.0
53834.0,STARLINK-4737,PAYLOAD,2022-12-22 21:26:14,15.0885281,0.0002105,53.2173,168.6712,57.3847,302.7348,0.00014605,2.038e-05,0.0,0 STARLINK-4737,1 53834U 22114S   22356.89322602  .00002038  00000-0  14605-3 0  9995,2 53834  53.2173 168.6712 0002105  57.3847 302.7348 15.08852810 15246,6917.840999999999,95.437,541.1619999999998,538.25,0.0
53834.0,STARLINK-4737,PAYLOAD,2022-12-23 11:44:43,15.08843897,0.0002095,53.2175,165.9946,59.0999,301.0199,6.2572e-05,7.08e-06,0.0,0 STARLINK-4737,1 53834U 22114S   22357.48939081  .00000708  00000-0  62572-4 0  9995,2 53834  53.2175 165.9946 0002095  59.0999 301.0199 15.08843897 15333,6917.868,95.437,541.183,538.284,0.0
53834.0,STARLINK-4737,PAYLOAD,2022-12-23 14:55:29,15.08843598,0.0002104,53.2176,165.3996,60.18899999999999,299.9311,4.851e-05,4.84e-06,0.0,0 STARLINK-4737,1 53834U 22114S   22357.62187133  .00000484  00000-0  48510-4 0  9991,2 53834  53.2176 165.3996 0002104  60.1890 299.9311 15.08843598 15897,6917.869000000002,95.437,541.19,538.279,0.0
53834.0,STARLINK-4737,PAYLOAD,2022-12-24 11:35:29,15.08849046,0.0002071,53.2176,161.5343,58.8412,301.2783,4.6698e-05,4.55e-06,0.0,0 STARLINK-4737,1 53834U 22114S   22358.48298365  .00000455  00000-0  46698-4 0  9999,2 53834  53.2176 161.5343 0002071  58.8412 301.2783 15.08849046 16028,6917.853,95.437,541.15,538.285,0.0
53834.0,STARLINK-4737,PAYLOAD,2022-12-24 17:57:02,15.08843537,0.0002009,53.218,160.3451,56.5735,303.5449,-2.5721e-05,-6.98e-06,0.0,0 STARLINK-4737,1 53834U 22114S   22358.74794805 -.00000698  00000-0 -25721-4 0  9993,2 53834  53.2180 160.3451 0002009  56.5735 303.5449 15.08843537 15521,6917.87,95.437,541.124,538.345,0.0
53834.0,STARLINK-4737,PAYLOAD,2022-12-25 11:26:17,15.08836447,0.0001947,53.2177,157.0744,54.1988,305.9185,2.4887e-05,1.08e-06,0.0,0 STARLINK-4737,1 53834U 22114S   22359.47659104  .00000108  00000-0  24887-4 0  9992,2 53834  53.2177 157.0744 0001947  54.1988 305.9185 15.08836447 16176,6917.891,95.438,541.1030000000002,538.409,0.0
53834.0,STARLINK-4737,PAYLOAD,2022-12-25 17:47:49,15.08838519,0.0001969,53.2177,155.8851,54.8683,305.2494,4.011800000000001e-05,3.5000000000000016e-06,0.0,0 STARLINK-4737,1 53834U 22114S   22359.74154951  .00000350  00000-0  40118-4 0  9996,2 53834  53.2177 155.8851 0001969  54.8683 305.2494 15.08838519 16217,6917.885,95.438,541.112,538.388,0.0
53834.0,STARLINK-4737,PAYLOAD,2022-12-26 03:20:08,15.08843434,0.0001987,53.2178,154.1009,55.0578,305.06,6.1306e-05,6.88e-06,0.0,0 STARLINK-4737,1 53834U 22114S   22360.13898611  .00000688  00000-0  61306-4 0  9995,2 53834  53.2178 154.1009 0001987  55.0578 305.0600 15.08843434 15736,6917.87,95.437,541.109,538.36,0.0
53834.0,STARLINK-4737,PAYLOAD,2022-12-26 20:49:23,15.08833104,0.0002044,53.2177,150.83,55.8945,304.2241,1.2978e-05,-8.2e-07,0.0,0 STARLINK-4737,1 53834U 22114S   22360.86763560 -.00000082  00000-0  12978-4 0  9999,2 53834  53.2177 150.8300 0002044  55.8945 304.2241 15.08833104 15840,6917.901,95.438,541.18,538.352,0.0
